[{"OBJECT_NAME":"STARLINK-30553","OBJECT_ID":"2023-158F","EPOCH":"2025-11-10T17:10:01.921728","MEAN_MOTION":15.02537825,"ECCENTRICITY":0.00013082,"INCLINATION":43.0034,"RA_OF_ASC_NODE":316.8787,"ARG_OF_PERICENTER":277.6815,"MEAN_ANOMALY":82.3879,"EPHEMERIS_TYPE":0,"CLASSIFICATION_TYPE":"U","NORAD_CAT_ID":58056,"ELEMENT_SET_NO":999,"REV_AT_EPOCH":11563,"BSTAR":0.0001417691,"MEAN_MOTION_DOT":1.712e-5,"MEAN_MOTION_DDOT":0},{"OBJECT_NAME":"STARLINK-30541","OBJECT_ID":"2023-158G","EPOCH":"2025-11-10T17:14:49.622496","MEAN_MOTION":15.02534773,"ECCENTRICITY":0.00010231,"INCLINATION":43.0038,"RA_OF_ASC_NODE":316.9061,"ARG_OF_PERICENTER":274.3701,"MEAN_ANOMALY":85.7025,"EPHEMERIS_TYPE":0,"CLASSIFICATION_TYPE":"U","NORAD_CAT_ID":58057,"ELEMENT_SET_NO":999,"REV_AT_EPOCH":11563,"BSTAR":5.667863e-5,"MEAN_MOTION_DOT":5.62e-6,"MEAN_MOTION_DDOT":0},{"OBJECT_NAME":"STARLINK-30573","OBJECT_ID":"2023-158H","EPOCH":"2025-11-10T01:07:58.012608","MEAN_MOTION":15.02586341,"ECCENTRICITY":0.00012766,"INCLINATION":43.0043,"RA_OF_ASC_NODE":320.4672,"ARG_OF_PERICENTER":285.0206,"MEAN_ANOMALY":75.0495,"EPHEMERIS_TYPE":0,"CLASSIFICATION_TYPE":"U","NORAD_CAT_ID":58058,"ELEMENT_SET_NO":999,"REV_AT_EPOCH":11553,"BSTAR":-0.00071591371,"MEAN_MOTION_DOT":-9.874e-5,"MEAN_MOTION_DDOT":0},{"OBJECT_NAME":"STARLINK-30582","OBJECT_ID":"2023-158J","EPOCH":"2025-11-10T16:50:50.860320","MEAN_MOTION":15.02542977,"ECCENTRICITY":0.00012034,"INCLINATION":43.005,"RA_OF_ASC_NODE":316.7822,"ARG_OF_PERICENTER":265.1626,"MEAN_ANOMALY":94.9079,"EPHEMERIS_TYPE":0,"CLASSIFICATION_TYPE":"U","NORAD_CAT_ID":58059,"ELEMENT_SET_NO":999,"REV_AT_EPOCH":11563,"BSTAR":2.2164413e-5,"MEAN_MOTION_DOT":9.6e-7,"MEAN_MOTION_DDOT":0},{"OBJECT_NAME":"STARLINK-30558","OBJECT_ID":"2023-158K","EPOCH":"2025-11-10T17:48:22.592160","MEAN_MOTION":15.02557833,"ECCENTRICITY":0.00012861,"INCLINATION":43.0065,"RA_OF_ASC_NODE":317.0659,"ARG_OF_PERICENTER":270.2124,"MEAN_ANOMALY":89.8571,"EPHEMERIS_TYPE":0,"CLASSIFICATION_TYPE":"U","NORAD_CAT_ID":58060,"ELEMENT_SET_NO":999,"REV_AT_EPOCH":11563,"BSTAR":-9.9941657e-5,"MEAN_MOTION_DOT":-1.554e-5,"MEAN_MOTION_DDOT":0},{"OBJECT_NAME":"STARLINK-30579","OBJECT_ID":"2023-158L","EPOCH":"2025-11-10T15:11:12.044256","MEAN_MOTION":15.02534587,"ECCENTRICITY":0.00012232,"INCLINATION":43.0049,"RA_OF_ASC_NODE":291.8114,"ARG_OF_PERICENTER":259.2895,"MEAN_ANOMALY":100.781,"EPHEMERIS_TYPE":0,"CLASSIFICATION_TYPE":"U","NORAD_CAT_ID":58061,"ELEMENT_SET_NO":999,"REV_AT_EPOCH":11591,"BSTAR":0.0001477876,"MEAN_MOTION_DOT":1.793e-5,"MEAN_MOTION_DDOT":0},{"OBJECT_NAME":"STARLINK-30588","OBJECT_ID":"2023-158M","EPOCH":"2025-11-10T02:19:42.677472","MEAN_MOTION":15.02529233,"ECCENTRICITY":0.00014478,"INCLINATION":43.0062,"RA_OF_ASC_NODE":319.9807,"ARG_OF_PERICENTER":278.3907,"MEAN_ANOMALY":81.6771,"EPHEMERIS_TYPE":0,"CLASSIFICATION_TYPE":"U","NORAD_CAT_ID":58062,"ELEMENT_SET_NO":999,"REV_AT_EPOCH":11554,"BSTAR":5.6705771e-5,"MEAN_MOTION_DOT":5.62e-6,"MEAN_MOTION_DDOT":0},{"OBJECT_NAME":"STARLINK-30585","OBJECT_ID":"2023-158N","EPOCH":"2025-11-10T10:03:58.312224","MEAN_MOTION":15.02530943,"ECCENTRICITY":0.0001387,"INCLINATION":43.0068,"RA_OF_ASC_NODE":318.1015,"ARG_OF_PERICENTER":275.2755,"MEAN_ANOMALY":84.7929,"EPHEMERIS_TYPE":0,"CLASSIFICATION_TYPE":"U","NORAD_CAT_ID":58063,"ELEMENT_SET_NO":999,"REV_AT_EPOCH":11559,"BSTAR":-0.00011857047,"MEAN_MOTION_DOT":-1.805e-5,"MEAN_MOTION_DDOT":0},{"OBJECT_NAME":"STARLINK-30587","OBJECT_ID":"2023-158P","EPOCH":"2025-11-10T16:46:03.779040","MEAN_MOTION":15.02530489,"ECCENTRICITY":4.311e-5,"INCLINATION":43.0008,"RA_OF_ASC_NODE":316.755,"ARG_OF_PERICENTER":312.7359,"MEAN_ANOMALY":47.3447,"EPHEMERIS_TYPE":0,"CLASSIFICATION_TYPE":"U","NORAD_CAT_ID":58064,"ELEMENT_SET_NO":999,"REV_AT_EPOCH":11563,"BSTAR":-3.1238181e-5,"MEAN_MOTION_DOT":-6.25e-6,"MEAN_MOTION_DDOT":0},{"OBJECT_NAME":"STARLINK-30576","OBJECT_ID":"2023-158Q","EPOCH":"2025-11-10T17:24:24.518592","MEAN_MOTION":15.02546831,"ECCENTRICITY":0.00011241,"INCLINATION":43.0043,"RA_OF_ASC_NODE":316.9558,"ARG_OF_PERICENTER":268.4425,"MEAN_ANOMALY":91.6289,"EPHEMERIS_TYPE":0,"CLASSIFICATION_TYPE":"U","NORAD_CAT_ID":58065,"ELEMENT_SET_NO":999,"REV_AT_EPOCH":11563,"BSTAR":3.7981605e-5,"MEAN_MOTION_DOT":3.1e-6,"MEAN_MOTION_DDOT":0},{"OBJECT_NAME":"STARLINK-30571","OBJECT_ID":"2023-158R","EPOCH":"2025-11-10T09:54:22.366368","MEAN_MOTION":15.02528887,"ECCENTRICITY":9.71e-5,"INCLINATION":43.0046,"RA_OF_ASC_NODE":318.049,"ARG_OF_PERICENTER":284.5436,"MEAN_ANOMALY":75.5299,"EPHEMERIS_TYPE":0,"CLASSIFICATION_TYPE":"U","NORAD_CAT_ID":58066,"ELEMENT_SET_NO":999,"REV_AT_EPOCH":11559,"BSTAR":0.000194379,"MEAN_MOTION_DOT":2.423e-5,"MEAN_MOTION_DDOT":0},{"OBJECT_NAME":"STARLINK-30567","OBJECT_ID":"2023-158S","EPOCH":"2025-11-10T17:45:11.497824","MEAN_MOTION":15.02548056,"ECCENTRICITY":8.258e-5,"INCLINATION":43.0034,"RA_OF_ASC_NODE":317.046,"ARG_OF_PERICENTER":283.1575,"MEAN_ANOMALY":76.9176,"EPHEMERIS_TYPE":0,"CLASSIFICATION_TYPE":"U","NORAD_CAT_ID":58067,"ELEMENT_SET_NO":999,"REV_AT_EPOCH":11563,"BSTAR":-0.00011809814,"MEAN_MOTION_DOT":-1.799e-5,"MEAN_MOTION_DDOT":0},{"OBJECT_NAME":"STARLINK-30569","OBJECT_ID":"2023-158T","EPOCH":"2025-11-10T16:36:29.092032","MEAN_MOTION":15.0253186,"ECCENTRICITY":0.00014082,"INCLINATION":43.0047,"RA_OF_ASC_NODE":316.7037,"ARG_OF_PERICENTER":271.5673,"MEAN_ANOMALY":88.5008,"EPHEMERIS_TYPE":0,"CLASSIFICATION_TYPE":"U","NORAD_CAT_ID":58068,"ELEMENT_SET_NO":999,"REV_AT_EPOCH":11563,"BSTAR":0.00014132237,"MEAN_MOTION_DOT":1.706e-5,"MEAN_MOTION_DDOT":0},{"OBJECT_NAME":"STARLINK-30480","OBJECT_ID":"2023-158U","EPOCH":"2025-11-10T16:51:40.804704","MEAN_MOTION":15.27580957,"ECCENTRICITY":0.00011509,"INCLINATION":42.9994,"RA_OF_ASC_NODE":196.803,"ARG_OF_PERICENTER":288.4876,"MEAN_ANOMALY":71.5851,"EPHEMERIS_TYPE":0,"CLASSIFICATION_TYPE":"U","NORAD_CAT_ID":58069,"ELEMENT_SET_NO":999,"REV_AT_EPOCH":11704,"BSTAR":7.4163773e-5,"MEAN_MOTION_DOT":1.779e-5,"MEAN_MOTION_DDOT":0},{"OBJECT_NAME":"STARLINK-30532","OBJECT_ID":"2023-158V","EPOCH":"2025-11-10T10:08:45.449664","MEAN_MOTION":15.02543214,"ECCENTRICITY":0.00011058,"INCLINATION":43.0042,"RA_OF_ASC_NODE":318.123,"ARG_OF_PERICENTER":275.2215,"MEAN_ANOMALY":84.8501,"EPHEMERIS_TYPE":0,"CLASSIFICATION_TYPE":"U","NORAD_CAT_ID":58070,"ELEMENT_SET_NO":999,"REV_AT_EPOCH":11559,"BSTAR":-0.00011378008,"MEAN_MOTION_DOT":-1.74e-5,"MEAN_MOTION_DDOT":0},{"OBJECT_NAME":"STARLINK-30513","OBJECT_ID":"2023-158W","EPOCH":"2025-11-10T14:17:38.226912","MEAN_MOTION":15.32420194,"ECCENTRICITY":0.00059523,"INCLINATION":43.0007,"RA_OF_ASC_NODE":63.227,"ARG_OF_PERICENTER":357.8597,"MEAN_ANOMALY":2.223,"EPHEMERIS_TYPE":0,"CLASSIFICATION_TYPE":"U","NORAD_CAT_ID":58071,"ELEMENT_SET_NO":999,"REV_AT_EPOCH":11857,"BSTAR":0.0021794198,"MEAN_MOTION_DOT":0.00070082,"MEAN_MOTION_DDOT":0}]
