STARLINK-30553          
1 58056U 23158F   25314.71530002  .00001712  00000+0  14177-3 0  9999
2 58056  43.0034 316.8787 0001308 277.6815  82.3879 15.02537825115639
STARLINK-30541          
1 58057U 23158G   25314.71862989  .00000562  00000+0  56679-4 0  9998
2 58057  43.0038 316.9061 0001023 274.3701  85.7025 15.02534773115631
STARLINK-30573          
1 58058U 23158H   25314.04719922 -.00009874  00000+0 -71591-3 0  9999
2 58058  43.0043 320.4672 0001276 285.0206  75.0495 15.02586341115535
STARLINK-30582          
1 58059U 23158J   25314.70197755  .00000096  00000+0  22164-4 0  9995
2 58059  43.0050 316.7822 0001203 265.1626  94.9079 15.02542977115630
STARLINK-30558          
1 58060U 23158K   25314.74192815 -.00001554  00000+0 -99942-4 0  9993
2 58060  43.0065 317.0659 0001286 270.2124  89.8571 15.02557833115638
STARLINK-30579          
1 58061U 23158L   25314.63277829  .00001793  00000+0  14779-3 0  9998
2 58061  43.0049 291.8114 0001223 259.2895 100.7810 15.02534587115910
STARLINK-30588          
1 58062U 23158M   25314.09702173  .00000562  00000+0  56706-4 0  9994
2 58062  43.0062 319.9807 0001447 278.3907  81.6771 15.02529233115545
STARLINK-30585          
1 58063U 23158N   25314.41942491 -.00001805  00000+0 -11857-3 0  9990
2 58063  43.0068 318.1015 0001387 275.2755  84.7929 15.02530943115598
STARLINK-30587          
1 58064U 23158P   25314.69865485 -.00000625  00000+0 -31238-4 0  9993
2 58064  43.0008 316.7550 0000431 312.7359  47.3447 15.02530489115637
STARLINK-30576          
1 58065U 23158Q   25314.72528378  .00000310  00000+0  37982-4 0  9996
2 58065  43.0043 316.9558 0001124 268.4425  91.6289 15.02546831115632
STARLINK-30571          
1 58066U 23158R   25314.41275887  .00002423  00000+0  19438-3 0  9999
2 58066  43.0046 318.0490 0000971 284.5436  75.5299 15.02528887115592
STARLINK-30567          
1 58067U 23158S   25314.73971641 -.00001799  00000+0 -11810-3 0  9999
2 58067  43.0034 317.0460 0000825 283.1575  76.9176 15.02548056115637
STARLINK-30569          
1 58068U 23158T   25314.69200338  .00001706  00000+0  14132-3 0  9999
2 58068  43.0047 316.7037 0001408 271.5673  88.5008 15.02531860115634
STARLINK-30480          
1 58069U 23158U   25314.70255561  .00001779  00000+0  74164-4 0  9992
2 58069  42.9994 196.8030 0001150 288.4876  71.5851 15.27580957117043
STARLINK-30532          
1 58070U 23158V   25314.42274826 -.00001740  00000+0 -11378-3 0  9995
2 58070  43.0042 318.1230 0001105 275.2215  84.8501 15.02543214115598
STARLINK-30513          
1 58071U 23158W   25314.59558133  .00070082  00000+0  21794-2 0  9995
2 58071  43.0007  63.2270 0005952 357.8597   2.2230 15.32420194118574
